STARLINK-33909          
1 63804U 25092A   25152.91668981 -.00002430  00000+0 -50939-4 0  9992
2 63804  42.9999 320.6790 0001935 287.3149 140.7530 15.40686838  5648
STARLINK-34029          
1 63805U 25092B   25152.75948017  .00001518  00000+0  31651-4 0  9990
2 63805  42.9949 321.3753 0000337 255.3025 104.7798 15.50596599  5623
STARLINK-34102          
1 63806U 25092C   25152.17948652 -.00008518  00000+0 -13991-3 0  9997
2 63806  43.0009 324.7656 0001087 340.8782  19.2037 15.50504832  5585
STARLINK-34109          
1 63807U 25092D   25152.88762665  .00002525  00000+0  48835-4 0  9990
2 63807  43.0021 320.6175 0001752 281.0914  78.9749 15.50584773  5644
STARLINK-34091          
1 63808U 25092E   25152.88728213  .00001765  00000+0  35893-4 0  9997
2 63808  42.9992 320.6147 0001088 277.1586  82.9150 15.50588065  5696
STARLINK-34095          
1 63809U 25092F   25152.91668981  .00067814  00000+0  16176-2 0  9995
2 63809  43.0003 320.7385 0001607 264.9211 138.2597 15.40674680  5635
STARLINK-34127          
1 63810U 25092G   25152.82217934  .00002069  00000+0  41060-4 0  9998
2 63810  43.0017 320.9853 0001482 270.0397  90.0293 15.50589973  5626
STARLINK-34110          
1 63811U 25092H   25152.88601506  .00009932  00000+0  17481-3 0  9992
2 63811  43.0001 320.6035 0000832 343.0817  17.0015 15.50592429  5693
STARLINK-34101          
1 63812U 25092J   25150.00003472  .00102201  00000+0  17292-2 0  9995
2 63812  43.0001 337.4816 0001787 272.7817 158.7120 15.50514179  5130
STARLINK-34065          
1 63813U 25092K   25152.91668981 -.00863049  00000+0 -80561-2 0  9995
2 63813  42.9993 319.2173 0001699 284.9386  18.4863 15.68988890  5669
STARLINK-34057          
1 63814U 25092L   25152.88522965  .00001058  00000+0  23843-4 0  9997
2 63814  42.9991 320.5983 0002026 268.3665  91.6963 15.50592852  5645
STARLINK-34060          
1 63815U 25092M   25152.88487620  .00002961  00000+0  56242-4 0  9999
2 63815  43.0000 320.5942 0001325 267.7699  92.3010 15.50596798  5582
STARLINK-34048          
1 63816U 25092N   25152.88505294 -.00073220  00000+0 -12795-2 0  9999
2 63816  42.9977 320.5933 0000427 267.8534  92.2277 15.50014558  5690
STARLINK-33959          
1 63817U 25092P   25152.91668981  .00050814  00000+0  12180-2 0  9997
2 63817  42.9999 320.6162 0001603 260.2347 192.6935 15.40640465  5682
STARLINK-34058          
1 63818U 25092Q   25152.91668981  .00151622  00000+0  35806-2 0  9997
2 63818  42.9997 320.5552 0001443 267.0469 210.7531 15.40570352  5765
STARLINK-34055          
1 63819U 25092R   25152.85170456  .00001060  00000+0  23880-4 0  9997
2 63819  42.9993 320.3304 0001302 274.1332  85.9379 15.50583451  5641
STARLINK-33794          
1 63820U 25092S   25152.91668981 -.01578946  00000+0 -38108-1 0  9992
2 63820  42.9997 320.4456 0001112 283.2591 239.7717 15.43633263  5715
STARLINK-34047          
1 63821U 25092T   25151.78784456 -.00007119  00000+0 -11589-3 0  9997
2 63821  43.0043 326.9792 0003115 257.8920 102.1591 15.50506562  5523
STARLINK-34094          
1 63822U 25092U   25152.91668981 -.00019836  00000+0 -33328-3 0  9992
2 63822  42.9998 319.4444 0001349 274.8310 296.0924 15.50568514  5709
STARLINK-34043          
1 63823U 25092V   25152.91668981 -.00038556  00000+0 -65467-3 0  9992
2 63823  42.9997 319.4074 0001555 260.2614 325.6540 15.50576535  5652
STARLINK-34025          
1 63824U 25092W   25152.81737914  .00001392  00000+0  29541-4 0  9995
2 63824  42.9995 320.9471 0001668 265.2223  94.8447 15.50588282  5579
STARLINK-33874          
1 63825U 25092X   25152.75262597  .00001246  00000+0  27042-4 0  9991
2 63825  42.9981 321.3179 0001349 278.5883  81.4824 15.50587173  5670
STARLINK-33781          
1 63826U 25092Y   25152.75228025  .00001370  00000+0  29161-4 0  9992
2 63826  42.9996 321.3180 0001203 273.0223  87.0500 15.50588925  5664
STARLINK-33891          
1 63827U 25092Z   25152.75193770  .00001264  00000+0  27362-4 0  9994
2 63827  42.9995 321.3143 0001203 266.1293  93.9429 15.50586193  5552
STARLINK-33903          
1 63828U 25092AA  25152.75159646  .00000578  00000+0  15677-4 0  9992
2 63828  43.0001 321.3076 0001623 265.9881  94.0794 15.50583500  5673
STARLINK-33889          
1 63829U 25092AB  25152.91668981  .00051456  00000+0  12333-2 0  9993
2 63829  43.0000 320.6431 0001578 262.8920 177.6042 15.40637918  5585
STARLINK-33984          
1 63830U 25092AC  25152.75125540  .00001165  00000+0  25678-4 0  9996
2 63830  43.0001 321.3060 0001405 279.8455  80.2246 15.50582962  5623
STARLINK-33940          
1 63831U 25092AD  25152.91668981 -.00043430  00000+0 -10369-2 0  9998
2 63831  42.9999 320.5824 0001458 277.9103 187.4770 15.40740764  5698
STARLINK-33978          
1 63832U 25092AE  25152.91668981  .00001589  00000+0  45334-4 0  9998
2 63832  43.0001 320.7029 0001411 290.5064 125.0883 15.40672708  5684
HERMES-5                
1 63834U 25052BQ  25152.65676153  .00019797  00000+0  97082-3 0  9993
2 63834  97.4429  46.6527 0007203  53.4197 306.7698 15.18131662 12031
HERMES-3                
1 63835U 25052BR  25152.96188184  .00008481  00000+0  40789-3 0  9990
2 63835  97.4333  46.9395 0008981  44.1799 316.0151 15.19005737 12088
STARLINK-34018          
1 63836U 25093A   25152.91668981 -.00263473  00000+0 -64837-2 0  9994
2 63836  42.9993 226.3693 0001547 252.4783 305.8945 15.40867129  4992
STARLINK-34053          
1 63837U 25093B   25152.91668981 -.01658175  00000+0 -38791-1 0  9992
2 63837  42.9996 225.9670 0001548 267.2456  97.1681 15.44701842  5002
STARLINK-34042          
1 63838U 25093C   25152.91240050  .00000946  00000+0  21936-4 0  9996
2 63838  42.9990 225.9447 0000883 265.5179  94.5580 15.50581287  5008
STARLINK-34040          
1 63839U 25093D   25152.91668981 -.00239137  00000+0 -58731-2 0  9993
2 63839  42.9996 226.1883 0001560 267.2282   5.7854 15.40828895  4992
STARLINK-33990          
1 63840U 25093E   25152.91171638  .00000895  00000+0  21073-4 0  9999
2 63840  43.0001 225.9389 0001046 257.3977 102.6766 15.50577816  4782
STARLINK-34056          
1 63841U 25093F   25149.56179427  .00000957  00000+0  22143-4 0  9999
2 63841  43.0004 245.5234 0001580 275.3207  84.7473 15.50577131  4259
STARLINK-34026          
1 63842U 25093G   25149.56144971  .00000697  00000+0  17698-4 0  9996
2 63842  42.9997 245.5211 0001515 271.3287  88.7399 15.50579291  4256
STARLINK-33777          
1 63843U 25093H   25152.91089813 -.00024938  00000+0 -42354-3 0  9995
2 63843  43.0004 225.9334 0003793  50.8771 309.2426 15.50374719  5008
STARLINK-34041          
1 63844U 25093J   25151.94459391 -.00062433  00000+0 -10861-2 0  9999
2 63844  43.0016 231.5826 0001872  25.1217 334.9733 15.50076524  4858
STARLINK-34011          
1 63845U 25093K   25152.68425703  .00002133  00000+0  58283-4 0  9993
2 63845  42.9981 227.6769 0000637 254.6560 105.4226 15.40708251  4742
STARLINK-34044          
1 63846U 25093L   25152.91668981 -.00255248  00000+0 -62759-2 0  9997
2 63846  42.9998 226.1277 0001612 267.9923  29.9109 15.40859634  4778
STARLINK-34037          
1 63847U 25093M   25152.91668981 -.00149542  00000+0 -36327-2 0  9999
2 63847  42.9993 226.2180 0001553 269.1432 351.3857 15.40785565  4998
STARLINK-34010          
1 63848U 25093N   25152.90919162 -.00013335  00000+0 -22300-3 0  9996
2 63848  42.9993 225.9181 0002657 307.8575  52.2045 15.50431237  4788
STARLINK-34009          
1 63849U 25093P   25152.65096848  .00001092  00000+0  24434-4 0  9992
2 63849  42.9995 227.4203 0001099 258.4803 101.5933 15.50580590  4968
STARLINK-33958          
1 63850U 25093Q   25149.55871836 -.00000936  00000+0 -10139-4 0  9992
2 63850  42.9999 245.4988 0001420 276.3089  83.7609 15.50568296  4316
STARLINK-33776          
1 63851U 25093R   25151.94173231 -.00003793  00000+0 -58919-4 0  9995
2 63851  42.9966 231.5590 0001134 298.7634  61.3112 15.50555012  4843
STARLINK-34032          
1 63853U 25093T   25152.91668981 -.00071692  00000+0 -17230-2 0  9998
2 63853  42.9993 225.6271 0001482 280.0110 216.9021 15.40736669  5008
STARLINK-34015          
1 63854U 25093U   25152.91668981 -.01660508  00000+0 -41635-1 0  9995
2 63854  42.9998 225.3617 0001549 257.3375 349.5859 15.42678882  4846
STARLINK-33969          
1 63855U 25093V   25152.91668981 -.00214064  00000+0 -52295-2 0  9992
2 63855  42.9994 225.5066 0001487 246.4639 300.1481 15.40886260  4771
STARLINK-34002          
1 63856U 25093W   25152.91668981 -.00137882  00000+0 -33437-2 0  9992
2 63856  42.9995 225.6566 0001578 263.9342 220.5394 15.40786364  4777
STARLINK-33999          
1 63857U 25093X   25152.67218679  .00002054  00000+0  40820-4 0  9997
2 63857  42.9975 226.6958 0001332 267.2204  92.8504 15.50582785  4971
STARLINK-33976          
1 63858U 25093Y   25152.67252806  .00003185  00000+0  60065-4 0  9997
2 63858  42.9987 226.6982 0001449 267.1616  92.9079 15.50588258  4819
STARLINK-33821          
1 63859U 25093Z   25152.91668981 -.00093189  00000+0 -22472-2 0  9993
2 63859  42.9991 225.2446 0001568 263.0218  23.1845 15.40748949  4990
STARLINK-33888          
1 63860U 25093AA  25152.91668981  .00051610  00000+0  12375-2 0  9997
2 63860  42.9998 225.4162 0001723 269.4472 314.5701 15.40623817  5008
STARLINK-33896          
1 63861U 25093AB  25152.91668981 -.00248973  00000+0 -61173-2 0  9990
2 63861  42.9992 225.5353 0000556 290.9650 243.2686 15.40858835  4869
STARLINK-33878          
1 63862U 25093AC  25152.91668981 -.00252298  00000+0 -61987-2 0  9999
2 63862  42.9989 225.1801 0001622 283.3320  27.8001 15.40870252  5006
STARLINK-33954          
1 63863U 25093AD  25152.67115725  .00002686  00000+0  51576-4 0  9993
2 63863  42.9982 226.6859 0001338 270.0776  89.9930 15.50585567  4755
STARLINK-33863          
1 63864U 25094A   25152.91668981 -.01688671  00000+0 -23443-1 0  9995
2 63864  69.9991 243.4571 0003441 274.9469 328.1991 15.59712444  4819
